STARLINK-31474          
1 59304U 24056J   26068.43052589  .00002262  00000+0  91711-4 0  9990
2 59304  43.0036 225.3421 0001728 280.3945  79.6712 15.27574581111197
FLOCK 4G-29             
1 62642U 25009AK  26068.81464037  .00011147  00000+0  41831-3 0  9994
2 62642  97.4058 151.3683 0001366 288.0502  72.0588 15.27382318 63721
